COSMOS 2433 (720)       
1 32275U 07052A   25014.38523418 -.00000080  00000+0  00000+0 0  9996
2 32275  65.8495 333.3390 0004622 268.4412  91.4957  2.13103949134042
COSMOS 2432 (719)       
1 32276U 07052B   25014.59363499 -.00000080  00000+0  00000+0 0  9991
2 32276  65.8646 333.4500 0011856 319.6236 145.7517  2.13103179134034
COSMOS 2434 (721)       
1 32393U 07065A   25013.30230736  .00000080  00000+0  00000+0 0  9999
2 32393  64.3169 209.4625 0005033  73.4833  67.5400  2.13101323132697
COSMOS 2436 (723)       
1 32395U 07065C   25013.55689157  .00000077  00000+0  00000+0 0  9999
2 32395  64.3255 209.5206 0017586  10.0177 100.8111  2.13100123132669
COSMOS 2456 (730)       
1 36111U 09070A   25014.34568170 -.00000015  00000+0  00000+0 0  9999
2 36111  64.7148  88.7143 0004391 296.4979  79.8692  2.13103550117378
COSMOS 2457 (733)       
1 36112U 09070B   25014.63136131 -.00000014  00000+0  00000+0 0  9999
2 36112  64.6997  88.5587 0004234 174.8444 192.8778  2.13100996117385
COSMOS 2460 (732)       
1 36402U 10007C   25013.92479858 -.00000081  00000+0  00000+0 0  9994
2 36402  65.7019 331.9829 0002524 305.2698 235.0817  2.13106134115662
COSMOS 2476 (744)       
1 37867U 11064A   25014.43602071 -.00000014  00000+0  00000+0 0  9992
2 37867  64.9836  90.4245 0024299 236.6249 120.1744  2.13101504102707
